DELTA 2 R/B(1)          
1 20453U 90008B   26110.13317996  .00055765  00000+0  54530-3 0  9997
2 20453  35.6027 261.7215 0075739 288.0346  71.2150 15.61339721932609
COSMOS 2058             
1 20465U 90010A   26110.15594306  .00001763  00000+0  10183-3 0  9992
2 20465  82.4708   6.5743 0009223 181.7959 178.3240 15.11670739948500
SL-14 R/B               
1 20466U 90010B   26110.30095756  .00000303  00000+0  33760-4 0  9991
2 20466  82.5034 228.2983 0020374 158.8239 201.3824 14.83607759934655
SL-14 R/B               
1 20511U 90018B   26110.15611535  .00000264  00000+0  30114-4 0  9998
2 20511  82.5238 184.3447 0015136 319.4601  40.5485 14.82181640928729
HST                     
1 20580U 90037B   26110.30222324  .00004272  00000+0  13496-3 0  9992
2 20580  28.4730 115.9889 0001886 214.8059 145.2413 15.30087398779696
SL-16 R/B               
1 20625U 90046B   26110.26390749 -.00000153  00000+0 -54151-4 0  9994
2 20625  70.9993 210.5965 0016298 244.9398 115.0033 14.15015201854276
COSMOS 2084             
1 20663U 90055A   26110.22762312  .00001334  00000+0  10516-3 0  9997
2 20663  62.7892 193.8773 0010512 206.6549 153.4012 15.05881222942579
SL-6 R/B(2)             
1 20666U 90055D   26110.26770754  .00001217  00000+0  10203-3 0  9996
2 20666  62.7803 112.4355 0031540 355.8596   4.2237 15.03773001944443
SL-8 R/B                
1 20775U 90078B   26110.28820036  .00012193  00000+0  35867-3 0  9991
2 20775  82.9058 213.8651 0356489 233.4616 123.3298 14.90179869815490
SL-8 R/B                
1 21088U 91006B   26110.30731579  .00000150  00000+0  13582-3 0  9997
2 21088  82.9408 139.0975 0020925 279.1494  90.7801 13.77502719769807
OKEAN-3                 
1 21397U 91039A   26110.23534452  .00001520  00000+0  10490-3 0  9996
2 21397  82.5131 296.5756 0014103 182.3300 177.7864 15.05026444871287
COSMOS 2151             
1 21422U 91042A   26110.23720937  .00001261  00000+0  98476-4 0  9997
2 21422  82.4982  43.5911 0010635 281.5569  78.4461 15.00277100869422
SL-14 R/B               
1 21423U 91042B   26110.21802660  .00000240  00000+0  27293-4 0  9995
2 21423  82.4955 181.2534 0018569 103.8416 256.4866 14.81867009859220
ERS-1                   
1 21574U 91050A   26110.05589353  .00000203  00000+0  79400-4 0  9990
2 21574  98.7843 129.3247 0033100  80.1742 280.3180 14.39479722821682
ARIANE 40 R/B           
1 21610U 91050F   26110.14718464  .00000153  00000+0  58192-4 0  9997
2 21610  98.1932 160.8104 0002090 328.8672  31.2394 14.42921895824978
INTERCOSMOS 25          
1 21819U 91086A   26110.17552265  .00000779  00000+0  14829-3 0  9997
2 21819  82.5990 284.9177 1485810  27.5288 339.7057 12.12121729501719
SL-8 R/B                
1 21876U 92008B   26110.30918767  .00000006  00000+0 -95546-5 0  9994
2 21876  82.9267 236.8158 0034956  20.6120   7.0796 13.75970047715141
SL-8 R/B                
1 21938U 92020B   26110.28893964 -.00000054  00000+0 -72279-4 0  9996
2 21938  82.9271 122.8665 0029032 178.8470 192.2822 13.75548979706855
USA 81                  
1 21949U 92023A   26110.22395018  .00000116  00000+0  35658-4 0  9999
2 21949  85.0036 107.4646 0001221  93.7235 266.4097 14.32380878100731
COSMOS 2219             
1 22219U 92076A   26110.25649354  .00000269  00000+0  16552-3 0  9996
2 22219  71.0586 291.1750 0017127 141.6235 218.6109 14.14091466724253
SL-16 R/B               
1 22220U 92076B   26110.26983200 -.00000154  00000+0 -52900-4 0  9993
2 22220  70.9981 100.7860 0011778  21.6469 349.1009 14.16866855727729
COSMOS 2221             
1 22236U 92080A   26109.83160405  .00001356  00000+0  11724-3 0  9991
2 22236  82.5035 239.6608 0015370  58.2036 302.0681 14.96370610786945
SL-16 R/B               
1 22285U 92093B   26110.15208514  .00000140  00000+0  95879-4 0  9994
2 22285  71.0199 277.2235 0006258 251.3769 108.6675 14.15454064719026
COSMOS 2228             
1 22286U 92094A   26110.22123084  .00001240  00000+0  10409-3 0  9999
2 22286  82.5206 197.5503 0018609 158.1311 202.0710 14.97391679782273
SL-16 R/B               
1 22566U 93016B   26110.19666963 -.00000274  00000+0 -11600-3 0  9991
2 22566  71.0042 128.0074 0012650 261.9578  98.0110 14.15311556708041
COSMOS 2242             
1 22626U 93024A   26110.28849342  .00001278  00000+0  10932-3 0  9991
2 22626  82.5199 226.9202 0016841 160.9125 199.2732 14.96724893786615
SL-16 R/B               
1 22803U 93059B   26110.19031086 -.00000194  00000+0 -72387-4 0  9995
2 22803  70.9890 283.6090 0016087 153.8599 206.3341 14.17238586685418
ARIANE 40 R/B           
1 22830U 93061H   26110.10778001  .00000123  00000+0  60733-4 0  9996
2 22830  98.4851 178.1631 0011326 156.1171 204.0541 14.32881896700030
COSMOS 2278             
1 23087U 94023A   26110.18321813  .00000313  00000+0  18833-3 0  9997
2 23087  71.0521  88.2830 0010116 315.0532  44.9771 14.14383658650674
SL-16 R/B               
1 23088U 94023B   26110.06955427 -.00000246  00000+0 -10215-3 0  9992
2 23088  71.0010 343.9876 0005418 248.9300 111.1243 14.15016762651947
SL-16 R/B               
1 23343U 94074B   26110.31178400  .00000257  00000+0  40944-4 0  9991
2 23343  97.7048 139.4319 0008111  87.1735 283.6911 14.79451692693404
SL-16 R/B               
1 23405U 94077B   26110.17638245  .00000254  00000+0  15411-3 0  9992
2 23405  70.9817 265.2056 0000772 144.7666 215.3508 14.15569703622100
ARIANE 40+ R/B          
1 23561U 95021B   26110.16006150  .00000178  00000+0  70601-4 0  9996
2 23561  98.4437 181.0668 0007085  28.2386   0.7345 14.39800389625213
SL-16 R/B               
1 23705U 95058B   26110.18538329  .00000043  00000+0  46326-4 0  9994
2 23705  71.0200  93.1344 0010758  49.1847 311.0207 14.15505003573729
SL-16 R/B               
1 24298U 96051B   26110.17130853  .00000030  00000+0  42951-4 0  9991
2 24298  70.7589  87.4368 0012531  76.8895 283.3623 14.12426206527508
ORBVIEW 2 (SEASTAR)     
1 24883U 97037A   26110.30838870  .00000143  00000+0  66127-4 0  9991
2 24883  98.8635 275.7383 0001255 317.4331  42.6756 14.35522093514448
SL-16 R/B               
1 25400U 98043G   26110.12783647  .00000024  00000+0  29124-4 0  9990
2 25400  98.8321  63.8031 0008779 252.8523 107.1695 14.26058742444890
SL-16 R/B               
1 25407U 98045B   26110.24655077 -.00000195  00000+0 -74124-4 0  9998
2 25407  71.0095  94.1796 0009174 309.9620  50.0697 14.16198692432988
ISS (ZARYA)             
1 25544U 98067A   26110.13518311  .00007929  00000+0  15272-3 0  9999
2 25544  51.6328 227.4156 0006665 328.2959  31.7627 15.48842238562751
CZ-4B R/B               
1 25732U 99025C   26110.07106536  .00000022  00000+0  31290-4 0  9994
2 25732  98.6546 153.3561 0036345 224.5706 165.0326 14.18273170394036
OKEAN-O                 
1 25860U 99039A   26110.15338000  .00000398  00000+0  58939-4 0  9998
2 25860  97.9365 169.6058 0001357 115.8346 244.3007 14.80396237440529
SL-16 R/B               
1 25861U 99039B   26110.09436018  .00000377  00000+0  54451-4 0  9992
2 25861  97.9887 169.1111 0016011 120.7922 239.4869 14.81784757442995
DELTA 2 R/B             
1 25876U 99041E   26110.06538506  .00000174  00000+0  68381-4 0  9995
2 25876  51.7596 135.9872 0502520 110.4388 255.1230 14.11921070368873
HELIOS 1B               
1 25977U 99064A   26110.00854921  .00001011  00000+0  11696-3 0  9995
2 25977  98.1655  13.4596 0000575  44.5496 315.5766 14.87845931691406
TERRA                   
1 25994U 99068A   26110.21909846  .00000243  00000+0  58565-4 0  9991
2 25994  97.9512 162.0494 0003457  68.0441   1.8345 14.61055677401145
SL-16 R/B               
1 26070U 00006B   26110.13148862 -.00000001  00000+0  23524-4 0  9995
2 26070  71.0043  10.6982 0014713 122.8606 237.3936 14.15828347354423
TITAN 4B R/B            
1 26474U 00047B   26110.23516878  .00001834  00000+0  11921-3 0  9996
2 26474  67.9881 283.6530 0041841 347.6102  12.4014 15.09883335399189
ENVISAT                 
1 27386U 02009A   26110.11212242  .00000055  00000+0  31798-4 0  9993
2 27386  98.3792  62.7411 0001150  85.6366 284.7515 14.39050306265138
IDEFIX & ARIANE 42P R/B 
1 27422U 02021B   26110.23763912  .00000156  00000+0  75635-4 0  9996
2 27422  98.5916  48.3598 0012958  67.1434 293.1116 14.31052538249969
AQUA                    
1 27424U 02022A   26110.22610022  .00000562  00000+0  12177-3 0  9993
2 27424  98.4238  78.3699 0001926 102.2348 314.9309 14.62064491274802
CZ-4B R/B               
1 27432U 02024C   26110.08972304  .00000018  00000+0  32589-4 0  9998
2 27432  98.8755 163.2710 0049047 265.2689 114.0750 14.14554844235091
MIDORI II (ADEOS-II)    
1 27597U 02056A   26110.17604743  .00000182  00000+0  89256-4 0  9999
2 27597  98.7836  68.9595 0000520 146.6522 213.4692 14.29315007216220
H-2A R/B                
1 27601U 02056E   26110.15094929  .00000218  00000+0  90870-4 0  9996
2 27601  98.3270  68.9567 0071055  38.8888 333.8027 14.33789315220058
CZ-4B R/B               
1 28059U 03049C   26110.26264525  .00000238  00000+0  66134-4 0  9998
2 28059  98.6900 106.8085 0049307 104.5032 256.1641 14.55055562192649
CZ-2C R/B               
1 28222U 04012C   26110.17791051  .00043016  00000+0  36200-3 0  9991
2 28222  97.7134 179.5496 0014001 155.0972 205.0968 15.69622441210772
SL-16 R/B               
1 28353U 04021B   26110.10666908 -.00000126  00000+0 -40626-4 0  9996
2 28353  70.9997 145.5793 0006620 316.1402  43.9194 14.14605631128696
CZ-4B R/B               
1 28415U 04035C   26110.06226451  .00006558  00000+0  22689-3 0  9991
2 28415  97.3426 143.8138 0031784 178.4746 181.6597 15.29738411186239
CZ-2C R/B               
1 28480U 04046B   26110.20548548  .00000111  00000+0  56171-4 0  9998
2 28480  98.1971  22.6016 0140144  32.5487 328.4240 14.27008093114428
ARIANE 5 R/B            
1 28499U 04049H   26110.19803886  .00000618  00000+0  74705-4 0  9993
2 28499  98.2683 280.2261 0083330 215.8433 143.7172 14.85342900151956
